CCSDS_OMM_VERS = 2.0
CREATION_DATE  = 
ORIGINATOR     = 

OBJECT_NAME    = SL-3 R/B
OBJECT_ID      = 1982-079B
CENTER_NAME    = EARTH
REF_FRAME      = TEME
TIME_SYSTEM    = UTC
MEAN_ELEMENT_THEORY = SGP/SGP4

EPOCH          = 2025-12-14T07:44:48.050304
MEAN_MOTION    = 15.23613719
ECCENTRICITY   = .00270653
INCLINATION    = 81.1469
RA_OF_ASC_NODE = 293.7948
ARG_OF_PERICENTER = 94.0065
MEAN_ANOMALY   = 266.4263

EPHEMERIS_TYPE = 0
CLASSIFICATION_TYPE = U
NORAD_CAT_ID   = 13403
ELEMENT_SET_NO = 999
REV_AT_EPOCH   = 36469
BSTAR          = .29252971E-3
MEAN_MOTION_DOT = .7102E-4
MEAN_MOTION_DDOT = 0

CCSDS_OMM_VERS = 2.0
CREATION_DATE  = 
ORIGINATOR     = 

OBJECT_NAME    = SL-14 R/B
OBJECT_ID      = 1982-092B
CENTER_NAME    = EARTH
REF_FRAME      = TEME
TIME_SYSTEM    = UTC
MEAN_ELEMENT_THEORY = SGP/SGP4

EPOCH          = 2025-12-14T04:07:42.693024
MEAN_MOTION    = 14.86557470
ECCENTRICITY   = .00192484
INCLINATION    = 82.5682
RA_OF_ASC_NODE = 221.3726
ARG_OF_PERICENTER = 221.9868
MEAN_ANOMALY   = 256.0335

EPHEMERIS_TYPE = 0
CLASSIFICATION_TYPE = U
NORAD_CAT_ID   = 13553
ELEMENT_SET_NO = 999
REV_AT_EPOCH   = 31622
BSTAR          = .69498212E-4
MEAN_MOTION_DOT = .642E-5
MEAN_MOTION_DDOT = 0

CCSDS_OMM_VERS = 2.0
CREATION_DATE  = 
ORIGINATOR     = 

OBJECT_NAME    = SL-3 R/B
OBJECT_ID      = 1983-010B
CENTER_NAME    = EARTH
REF_FRAME      = TEME
TIME_SYSTEM    = UTC
MEAN_ELEMENT_THEORY = SGP/SGP4

EPOCH          = 2025-12-14T07:52:13.260000
MEAN_MOTION    = 15.43513062
ECCENTRICITY   = .0017122
INCLINATION    = 81.1030
RA_OF_ASC_NODE = 106.6796
ARG_OF_PERICENTER = 345.5575
MEAN_ANOMALY   = 14.5176

EPHEMERIS_TYPE = 0
CLASSIFICATION_TYPE = U
NORAD_CAT_ID   = 13819
ELEMENT_SET_NO = 999
REV_AT_EPOCH   = 34476
BSTAR          = .34816633E-3
MEAN_MOTION_DOT = .15732E-3
MEAN_MOTION_DDOT = 0

CCSDS_OMM_VERS = 2.0
CREATION_DATE  = 
ORIGINATOR     = 

OBJECT_NAME    = SL-3 R/B
OBJECT_ID      = 1983-075B
CENTER_NAME    = EARTH
REF_FRAME      = TEME
TIME_SYSTEM    = UTC
MEAN_ELEMENT_THEORY = SGP/SGP4

EPOCH          = 2025-12-14T06:51:07.293312
MEAN_MOTION    = 15.36176395
ECCENTRICITY   = .00229225
INCLINATION    = 97.6106
RA_OF_ASC_NODE = 344.8211
ARG_OF_PERICENTER = 169.9221
MEAN_ANOMALY   = 190.2487

EPHEMERIS_TYPE = 0
CLASSIFICATION_TYPE = U
NORAD_CAT_ID   = 14208
ELEMENT_SET_NO = 999
REV_AT_EPOCH   = 31703
BSTAR          = .33448462E-3
MEAN_MOTION_DOT = .11811E-3
MEAN_MOTION_DDOT = 0

CCSDS_OMM_VERS = 2.0
CREATION_DATE  = 
ORIGINATOR     = 

OBJECT_NAME    = COSMOS 1536
OBJECT_ID      = 1984-013A
CENTER_NAME    = EARTH
REF_FRAME      = TEME
TIME_SYSTEM    = UTC
MEAN_ELEMENT_THEORY = SGP/SGP4

EPOCH          = 2025-12-14T07:37:50.890368
MEAN_MOTION    = 15.22540356
ECCENTRICITY   = .00136398
INCLINATION    = 82.5455
RA_OF_ASC_NODE = 192.5992
ARG_OF_PERICENTER = 219.4693
MEAN_ANOMALY   = 140.5551

EPHEMERIS_TYPE = 0
CLASSIFICATION_TYPE = U
NORAD_CAT_ID   = 14699
ELEMENT_SET_NO = 999
REV_AT_EPOCH   = 25962
BSTAR          = .2831986E-3
MEAN_MOTION_DOT = .6616E-4
MEAN_MOTION_DDOT = 0

CCSDS_OMM_VERS = 2.0
CREATION_DATE  = 
ORIGINATOR     = 

OBJECT_NAME    = SL-14 R/B
OBJECT_ID      = 1984-027B
CENTER_NAME    = EARTH
REF_FRAME      = TEME
TIME_SYSTEM    = UTC
MEAN_ELEMENT_THEORY = SGP/SGP4

EPOCH          = 2025-12-14T07:21:14.433984
MEAN_MOTION    = 14.85876579
ECCENTRICITY   = .00163975
INCLINATION    = 82.5414
RA_OF_ASC_NODE = 325.0867
ARG_OF_PERICENTER = 255.1084
MEAN_ANOMALY   = 104.8317

EPHEMERIS_TYPE = 0
CLASSIFICATION_TYPE = U
NORAD_CAT_ID   = 14820
ELEMENT_SET_NO = 999
REV_AT_EPOCH   = 23495
BSTAR          = .8163943E-4
MEAN_MOTION_DOT = .736E-5
MEAN_MOTION_DDOT = 0

CCSDS_OMM_VERS = 2.0
CREATION_DATE  = 
ORIGINATOR     = 

OBJECT_NAME    = SL-8 R/B
OBJECT_ID      = 1985-006B
CENTER_NAME    = EARTH
REF_FRAME      = TEME
TIME_SYSTEM    = UTC
MEAN_ELEMENT_THEORY = SGP/SGP4

EPOCH          = 2025-12-14T08:29:11.363136
MEAN_MOTION    = 14.37722274
ECCENTRICITY   = .00187628
INCLINATION    = 74.0467
RA_OF_ASC_NODE = 58.1659
ARG_OF_PERICENTER = 350.0034
MEAN_ANOMALY   = 80.7080

EPHEMERIS_TYPE = 0
CLASSIFICATION_TYPE = U
NORAD_CAT_ID   = 15483
ELEMENT_SET_NO = 999
REV_AT_EPOCH   = 14176
BSTAR          = .11024967E-3
MEAN_MOTION_DOT = .306E-5
MEAN_MOTION_DDOT = 0

CCSDS_OMM_VERS = 2.0
CREATION_DATE  = 
ORIGINATOR     = 

OBJECT_NAME    = SL-12 R/B(2)
OBJECT_ID      = 1985-042D
CENTER_NAME    = EARTH
REF_FRAME      = TEME
TIME_SYSTEM    = UTC
MEAN_ELEMENT_THEORY = SGP/SGP4

EPOCH          = 2025-12-14T05:49:43.281984
MEAN_MOTION    = 14.21952630
ECCENTRICITY   = .00375719
INCLINATION    = 71.1084
RA_OF_ASC_NODE = 268.2445
ARG_OF_PERICENTER = 259.3030
MEAN_ANOMALY   = 262.3631

EPHEMERIS_TYPE = 0
CLASSIFICATION_TYPE = U
NORAD_CAT_ID   = 15772
ELEMENT_SET_NO = 999
REV_AT_EPOCH   = 10224
BSTAR          = .54373304E-4
MEAN_MOTION_DOT = .73E-6
MEAN_MOTION_DDOT = 0

CCSDS_OMM_VERS = 2.0
CREATION_DATE  = 
ORIGINATOR     = 

OBJECT_NAME    = SL-14 R/B
OBJECT_ID      = 1985-069B
CENTER_NAME    = EARTH
REF_FRAME      = TEME
TIME_SYSTEM    = UTC
MEAN_ELEMENT_THEORY = SGP/SGP4

EPOCH          = 2025-12-14T07:36:46.113696
MEAN_MOTION    = 14.86326921
ECCENTRICITY   = .00202205
INCLINATION    = 82.5268
RA_OF_ASC_NODE = 105.2199
ARG_OF_PERICENTER = 113.6123
MEAN_ANOMALY   = 246.7220

EPHEMERIS_TYPE = 0
CLASSIFICATION_TYPE = U
NORAD_CAT_ID   = 15945
ELEMENT_SET_NO = 999
REV_AT_EPOCH   = 16015
BSTAR          = .85933076E-4
MEAN_MOTION_DOT = .784E-5
MEAN_MOTION_DDOT = 0

CCSDS_OMM_VERS = 2.0
CREATION_DATE  = 
ORIGINATOR     = 

OBJECT_NAME    = SL-16 R/B
OBJECT_ID      = 1985-097B
CENTER_NAME    = EARTH
REF_FRAME      = TEME
TIME_SYSTEM    = UTC
MEAN_ELEMENT_THEORY = SGP/SGP4

EPOCH          = 2025-12-14T08:28:57.483840
MEAN_MOTION    = 14.16585172
ECCENTRICITY   = .00067799
INCLINATION    = 71.0034
RA_OF_ASC_NODE = 320.2055
ARG_OF_PERICENTER = 8.3933
MEAN_ANOMALY   = 156.9255

EPHEMERIS_TYPE = 0
CLASSIFICATION_TYPE = U
NORAD_CAT_ID   = 16182
ELEMENT_SET_NO = 999
REV_AT_EPOCH   = 7514
BSTAR          = .19173381E-3
MEAN_MOTION_DOT = .335E-5
MEAN_MOTION_DDOT = 0

CCSDS_OMM_VERS = 2.0
CREATION_DATE  = 
ORIGINATOR     = 

OBJECT_NAME    = SL-14 R/B
OBJECT_ID      = 1986-006B
CENTER_NAME    = EARTH
REF_FRAME      = TEME
TIME_SYSTEM    = UTC
MEAN_ELEMENT_THEORY = SGP/SGP4

EPOCH          = 2025-12-14T05:57:06.013728
MEAN_MOTION    = 14.86674269
ECCENTRICITY   = .00762931
INCLINATION    = 82.5264
RA_OF_ASC_NODE = 340.1317
ARG_OF_PERICENTER = 194.7782
MEAN_ANOMALY   = 165.1206

EPHEMERIS_TYPE = 0
CLASSIFICATION_TYPE = U
NORAD_CAT_ID   = 16496
ELEMENT_SET_NO = 999
REV_AT_EPOCH   = 13651
BSTAR          = .90566272E-4
MEAN_MOTION_DOT = .875E-5
MEAN_MOTION_DDOT = 0

CCSDS_OMM_VERS = 2.0
CREATION_DATE  = 
ORIGINATOR     = 

OBJECT_NAME    = COSMOS 1743
OBJECT_ID      = 1986-034A
CENTER_NAME    = EARTH
REF_FRAME      = TEME
TIME_SYSTEM    = UTC
MEAN_ELEMENT_THEORY = SGP/SGP4

EPOCH          = 2025-12-13T22:39:02.684448
MEAN_MOTION    = 15.52232928
ECCENTRICITY   = .00047033
INCLINATION    = 82.5344
RA_OF_ASC_NODE = 163.3412
ARG_OF_PERICENTER = 248.4518
MEAN_ANOMALY   = 111.6233

EPHEMERIS_TYPE = 0
CLASSIFICATION_TYPE = U
NORAD_CAT_ID   = 16719
ELEMENT_SET_NO = 999
REV_AT_EPOCH   = 16692
BSTAR          = .52988722E-3
MEAN_MOTION_DOT = .3226E-3
MEAN_MOTION_DDOT = 0

