SL-3 R/B                
1 13403U 82079B   25348.32277836  .00007102  00000+0  29253-3 0  9990
2 13403  81.1469 293.7948 0027065  94.0065 266.4263 15.23613719364693
SL-14 R/B               
1 13553U 82092B   25348.17202191  .00000642  00000+0  69498-4 0  9994
2 13553  82.5682 221.3726 0019248 221.9868 256.0335 14.86557470316228
SL-3 R/B                
1 13819U 83010B   25348.32793125  .00015732  00000+0  34817-3 0  9991
2 13819  81.1030 106.6796 0017122 345.5575  14.5176 15.43513062344767
SL-3 R/B                
1 14208U 83075B   25348.28550108  .00011811  00000+0  33448-3 0  9995
2 14208  97.6106 344.8211 0022922 169.9221 190.2487 15.36176395317037
COSMOS 1536             
1 14699U 84013A   25348.31795012  .00006616  00000+0  28320-3 0  9991
2 14699  82.5455 192.5992 0013639 219.4693 140.5551 15.22540356259621
SL-14 R/B               
1 14820U 84027B   25348.30641706  .00000736  00000+0  81639-4 0  9991
2 14820  82.5414 325.0867 0016397 255.1084 104.8317 14.85876579234950
SL-8 R/B                
1 15483U 85006B   25348.35360374  .00000306  00000+0  11025-3 0  9993
2 15483  74.0467  58.1659 0018762 350.0034  80.7080 14.37722274141765
SL-12 R/B(2)            
1 15772U 85042D   25348.24286206  .00000073  00000+0  54373-4 0  9998
2 15772  71.1084 268.2445 0037571 259.3030 262.3631 14.21952630102246
SL-14 R/B               
1 15945U 85069B   25348.31720039  .00000784  00000+0  85933-4 0  9999
2 15945  82.5268 105.2199 0020220 113.6123 246.7220 14.86326921160155
SL-16 R/B               
1 16182U 85097B   25348.35344310  .00000335  00000+0  19173-3 0  9996
2 16182  71.0034 320.2055 0006779   8.3933 156.9255 14.16585172 75147
SL-14 R/B               
1 16496U 86006B   25348.24798627  .00000875  00000+0  90566-4 0  9992
2 16496  82.5264 340.1317 0076293 194.7782 165.1206 14.86674269136519
COSMOS 1743             
1 16719U 86034A   25347.94378107  .00032260  00000+0  52989-3 0  9993
2 16719  82.5344 163.3412 0004703 248.4518 111.6233 15.52232928166928
